{
    "links": {
        "self": "http://www.neowsapp.com/rest/v1/neo/3828423?api_key=iIulBulltgU6a56xZRHN4H3l9WmuAYTsLGpBGhQ2"
    },
    "id": "3828423",
    "neo_reference_id": "3828423",
    "name": "(2018 RE5)",
    "designation": "2018 RE5",
    "nasa_jpl_url": "http://ssd.jpl.nasa.gov/sbdb.cgi?sstr=3828423",
    "absolute_magnitude_h": 27.4,
    "estimated_diameter": {
        "kilometers": {
            "estimated_diameter_min": 0.0088014652,
            "estimated_diameter_max": 0.0196806745
        },
        "meters": {
            "estimated_diameter_min": 8.801465209,
            "estimated_diameter_max": 19.6806745089
        },
        "miles": {
            "estimated_diameter_min": 0.0054689752,
            "estimated_diameter_max": 0.0122290004
        },
        "feet": {
            "estimated_diameter_min": 28.8761991163,
            "estimated_diameter_max": 64.5691441559
        }
    },
    "is_potentially_hazardous_asteroid": false,
    "close_approach_data": [
        {
            "close_approach_date": "2018-09-15",
            "close_approach_date_full": "2018-Sep-15 03:45",
            "epoch_date_close_approach": 1536983100000,
            "relative_velocity": {
                "kilometers_per_second": "15.3334375701",
                "kilometers_per_hour": "55200.375252257",
                "miles_per_hour": "34299.3665004927"
            },
            "miss_distance": {
                "astronomical": "0.00379361",
                "lunar": "1.47571429",
                "kilometers": "567515.9756107",
                "miles": "352638.07519966"
            },
            "orbiting_body": "Earth"
        },
        {
            "close_approach_date": "2018-09-15",
            "close_approach_date_full": "2018-Sep-15 03:45",
            "epoch_date_close_approach": 1536983100000,
            "relative_velocity": {
                "kilometers_per_second": "16.2290904966",
                "kilometers_per_hour": "58424.7257876804",
                "miles_per_hour": "36302.8525317951"
            },
            "miss_distance": {
                "astronomical": "0.0024899702",
                "lunar": "0.9685984078",
                "kilometers": "372494.238283474",
                "miles": "231457.1868569812"
            },
            "orbiting_body": "Moon"
        },
        {
            "close_approach_date": "2026-10-23",
            "close_approach_date_full": "2026-Oct-23 07:09",
            "epoch_date_close_approach": 1792739340000,
            "relative_velocity": {
                "kilometers_per_second": "11.0686841737",
                "kilometers_per_hour": "39847.2630253902",
                "miles_per_hour": "24759.5396281931"
            },
            "miss_distance": {
                "astronomical": "0.1481367725",
                "lunar": "57.6252045025",
                "kilometers": "22160945.634674575",
                "miles": "13770173.085976135"
            },
            "orbiting_body": "Venus"
        }
    ],
    "orbital_data": {
        "orbit_id": "4",
        "orbit_determination_date": "2018-09-16 06:58:47",
        "first_observation_date": "2018-09-12",
        "last_observation_date": "2018-09-14",
        "data_arc_in_days": 2,
        "observations_used": 33,
        "orbit_uncertainty": "8",
        "minimum_orbit_intersection": ".00173081",
        "jupiter_tisserand_invariant": "3.103",
        "epoch_osculation": "2458374.5",
        "eccentricity": ".6634005988835094",
        "semi_major_axis": "2.495062238753062",
        "inclination": "10.79744964914648",
        "ascending_node_longitude": "171.2215103124195",
        "orbital_period": "1439.529277446027",
        "perihelion_distance": ".8398364553126507",
        "perihelion_argument": "234.6983468311197",
        "aphelion_distance": "4.150288022193473",
        "perihelion_time": "2458413.770677781093",
        "mean_anomaly": "350.179120200823",
        "mean_motion": ".2500817493887321",
        "equinox": "J2000",
        "orbit_class": {
            "orbit_class_type": "APO",
            "orbit_class_description": "Near-Earth asteroid orbits which cross the Earth’s orbit similar to that of 1862 Apollo",
            "orbit_class_range": "a (semi-major axis) > 1.0 AU; q (perihelion) < 1.017 AU"
        }
    },
    "is_sentry_object": false
}